{
 "generated_at": "2026-07-19T07:26:41Z",
 "sources": [
  {
   "name": "CelesTrak",
   "url": "https://celestrak.org/NORAD/elements/",
   "license": "frei verfügbar; Attribution. Ursprünglich USSPACECOM/Space-Track."
  },
  {
   "name": "GCAT (J. McDowell, planet4589.org)",
   "url": "https://planet4589.org/space/gcat/",
   "license": "CC-BY 4.0"
  }
 ],
 "satellites": [
  {
   "norad": 46497,
   "name": "ICEYE-X6",
   "intl": "2020-068M",
   "group": "sar",
   "gcat": {
    "class": "B",
    "category": "IMG-R",
    "owner": "ICEYE",
    "state": "FI"
   },
   "omm": {
    "OBJECT_NAME": "ICEYE-X6",
    "OBJECT_ID": "2020-068M",
    "EPOCH": "2026-07-18T20:19:50.386944",
    "MEAN_MOTION": 15.04677964,
    "ECCENTRICITY": 0.0006902,
    "INCLINATION": 98.0993,
    "RA_OF_ASC_NODE": 195.0377,
    "ARG_OF_PERICENTER": 359.8999,
    "MEAN_ANOMALY": 0.2223,
    "EPHEMERIS_TYPE": 0,
    "CLASSIFICATION_TYPE": "U",
    "NORAD_CAT_ID": 46497,
    "ELEMENT_SET_NO": 999,
    "REV_AT_EPOCH": 31799,
    "BSTAR": 0.000091791,
    "MEAN_MOTION_DOT": 0.00001224,
    "MEAN_MOTION_DDOT": 0
   }
  },
  {
   "norad": 66753,
   "name": "ICEYE-X60",
   "intl": "2025-276CR",
   "group": "sar",
   "gcat": {
    "class": "B",
    "category": "IMG-R",
    "owner": "ELKED",
    "state": "GR"
   },
   "omm": {
    "OBJECT_NAME": "ICEYE-X60",
    "OBJECT_ID": "2025-276CR",
    "EPOCH": "2026-07-18T04:19:24.172896",
    "MEAN_MOTION": 15.10628567,
    "ECCENTRICITY": 0.0000988,
    "INCLINATION": 97.4172,
    "RA_OF_ASC_NODE": 270.9282,
    "ARG_OF_PERICENTER": 277.9557,
    "MEAN_ANOMALY": 82.1561,
    "EPHEMERIS_TYPE": 0,
    "CLASSIFICATION_TYPE": "U",
    "NORAD_CAT_ID": 66753,
    "ELEMENT_SET_NO": 999,
    "REV_AT_EPOCH": 3504,
    "BSTAR": 0.00011064,
    "MEAN_MOTION_DOT": 0.00001767,
    "MEAN_MOTION_DDOT": 0
   }
  },
  {
   "norad": 66754,
   "name": "ICEYE-X61",
   "intl": "2025-276CS",
   "group": "sar",
   "gcat": {
    "class": "B",
    "category": "IMG-R",
    "owner": "ARGUS/MON",
    "state": "PL"
   },
   "omm": {
    "OBJECT_NAME": "ICEYE-X61",
    "OBJECT_ID": "2025-276CS",
    "EPOCH": "2026-07-18T18:57:25.797888",
    "MEAN_MOTION": 15.18620506,
    "ECCENTRICITY": 0.0002402,
    "INCLINATION": 97.4191,
    "RA_OF_ASC_NODE": 272.6909,
    "ARG_OF_PERICENTER": 198.6183,
    "MEAN_ANOMALY": 161.4963,
    "EPHEMERIS_TYPE": 0,
    "CLASSIFICATION_TYPE": "U",
    "NORAD_CAT_ID": 66754,
    "ELEMENT_SET_NO": 999,
    "REV_AT_EPOCH": 3521,
    "BSTAR": 0.000077257,
    "MEAN_MOTION_DOT": 0.00001532,
    "MEAN_MOTION_DDOT": 0
   }
  },
  {
   "norad": 66755,
   "name": "ICEYE-X62",
   "intl": "2025-276CT",
   "group": "sar",
   "gcat": {
    "class": "B",
    "category": "IMG-R",
    "owner": "ICEYE",
    "state": "FI"
   },
   "omm": {
    "OBJECT_NAME": "ICEYE-X62",
    "OBJECT_ID": "2025-276CT",
    "EPOCH": "2026-07-18T17:41:26.964096",
    "MEAN_MOTION": 15.10165971,
    "ECCENTRICITY": 0.0001069,
    "INCLINATION": 97.419,
    "RA_OF_ASC_NODE": 270.9581,
    "ARG_OF_PERICENTER": 211.774,
    "MEAN_ANOMALY": 148.3425,
    "EPHEMERIS_TYPE": 0,
    "CLASSIFICATION_TYPE": "U",
    "NORAD_CAT_ID": 66755,
    "ELEMENT_SET_NO": 999,
    "REV_AT_EPOCH": 3509,
    "BSTAR": 0.00015704,
    "MEAN_MOTION_DOT": 0.00002501,
    "MEAN_MOTION_DDOT": 0
   }
  },
  {
   "norad": 67372,
   "name": "ICEYE-X63",
   "intl": "2026-004K",
   "group": "sar",
   "gcat": {
    "class": "B",
    "category": "IMG-R",
    "owner": "ICEYE",
    "state": "FI"
   },
   "omm": {
    "OBJECT_NAME": "ICEYE-X63",
    "OBJECT_ID": "2026-004K",
    "EPOCH": "2026-07-18T17:56:22.908768",
    "MEAN_MOTION": 14.8835242,
    "ECCENTRICITY": 0.0005176,
    "INCLINATION": 97.8015,
    "RA_OF_ASC_NODE": 197.8957,
    "ARG_OF_PERICENTER": 42.8678,
    "MEAN_ANOMALY": 317.2941,
    "EPHEMERIS_TYPE": 0,
    "CLASSIFICATION_TYPE": "U",
    "NORAD_CAT_ID": 67372,
    "ELEMENT_SET_NO": 999,
    "REV_AT_EPOCH": 2799,
    "BSTAR": 0.00005168,
    "MEAN_MOTION_DOT": 0.00000424,
    "MEAN_MOTION_DDOT": 0
   }
  },
  {
   "norad": 67373,
   "name": "ICEYE-X64",
   "intl": "2026-004L",
   "group": "sar",
   "gcat": {
    "class": "D",
    "category": "IMG-R",
    "owner": "PUOL",
    "state": "FI"
   },
   "omm": {
    "OBJECT_NAME": "ICEYE-X64",
    "OBJECT_ID": "2026-004L",
    "EPOCH": "2026-07-18T19:07:45.820704",
    "MEAN_MOTION": 14.87991929,
    "ECCENTRICITY": 0.0007047,
    "INCLINATION": 97.8029,
    "RA_OF_ASC_NODE": 197.8623,
    "ARG_OF_PERICENTER": 44.3532,
    "MEAN_ANOMALY": 315.8248,
    "EPHEMERIS_TYPE": 0,
    "CLASSIFICATION_TYPE": "U",
    "NORAD_CAT_ID": 67373,
    "ELEMENT_SET_NO": 999,
    "REV_AT_EPOCH": 2799,
    "BSTAR": 0.000065316,
    "MEAN_MOTION_DOT": 0.00000545,
    "MEAN_MOTION_DDOT": 0
   }
  },
  {
   "norad": 66300,
   "name": "ICEYE-X65",
   "intl": "2025-248H",
   "group": "sar",
   "gcat": {
    "class": "B",
    "category": "IMG-R",
    "owner": "SP42",
    "state": "UAE"
   },
   "omm": {
    "OBJECT_NAME": "ICEYE-X65",
    "OBJECT_ID": "2025-248H",
    "EPOCH": "2026-07-18T18:00:59.491584",
    "MEAN_MOTION": 15.07940586,
    "ECCENTRICITY": 0.0005811,
    "INCLINATION": 45.4068,
    "RA_OF_ASC_NODE": 328.2022,
    "ARG_OF_PERICENTER": 217.0085,
    "MEAN_ANOMALY": 143.0397,
    "EPHEMERIS_TYPE": 0,
    "CLASSIFICATION_TYPE": "U",
    "NORAD_CAT_ID": 66300,
    "ELEMENT_SET_NO": 999,
    "REV_AT_EPOCH": 4028,
    "BSTAR": 0.00010775,
    "MEAN_MOTION_DOT": 0.00001432,
    "MEAN_MOTION_DDOT": 0
   }
  },
  {
   "norad": 66301,
   "name": "ICEYE-X66",
   "intl": "2025-248J",
   "group": "sar",
   "gcat": {
    "class": "B",
    "category": "IMG-R",
    "owner": "SP42",
    "state": "UAE"
   },
   "omm": {
    "OBJECT_NAME": "ICEYE-X66",
    "OBJECT_ID": "2025-248J",
    "EPOCH": "2026-07-18T17:53:25.621152",
    "MEAN_MOTION": 15.09191418,
    "ECCENTRICITY": 0.0005527,
    "INCLINATION": 45.4025,
    "RA_OF_ASC_NODE": 327.2735,
    "ARG_OF_PERICENTER": 213.3105,
    "MEAN_ANOMALY": 146.743,
    "EPHEMERIS_TYPE": 0,
    "CLASSIFICATION_TYPE": "U",
    "NORAD_CAT_ID": 66301,
    "ELEMENT_SET_NO": 999,
    "REV_AT_EPOCH": 4027,
    "BSTAR": 0.00012485,
    "MEAN_MOTION_DOT": 0.00001764,
    "MEAN_MOTION_DDOT": 0
   }
  },
  {
   "norad": 66302,
   "name": "ICEYE-X67",
   "intl": "2025-248K",
   "group": "sar",
   "gcat": {
    "class": "B",
    "category": "IMG-R",
    "owner": "SP42",
    "state": "UAE"
   },
   "omm": {
    "OBJECT_NAME": "ICEYE-X67",
    "OBJECT_ID": "2025-248K",
    "EPOCH": "2026-07-18T15:18:23.644224",
    "MEAN_MOTION": 15.0917215,
    "ECCENTRICITY": 0.0007003,
    "INCLINATION": 45.4061,
    "RA_OF_ASC_NODE": 327.421,
    "ARG_OF_PERICENTER": 213.0395,
    "MEAN_ANOMALY": 147.005,
    "EPHEMERIS_TYPE": 0,
    "CLASSIFICATION_TYPE": "U",
    "NORAD_CAT_ID": 66302,
    "ELEMENT_SET_NO": 999,
    "REV_AT_EPOCH": 4027,
    "BSTAR": 0.00011297,
    "MEAN_MOTION_DOT": 0.00001571,
    "MEAN_MOTION_DDOT": 0
   }
  },
  {
   "norad": 46496,
   "name": "ICEYE-X7",
   "intl": "2020-068L",
   "group": "sar",
   "gcat": {
    "class": "B",
    "category": "IMG-R",
    "owner": "ICEYE",
    "state": "FI"
   },
   "omm": {
    "OBJECT_NAME": "ICEYE-X7",
    "OBJECT_ID": "2020-068L",
    "EPOCH": "2026-07-18T21:18:57.337632",
    "MEAN_MOTION": 15.32142778,
    "ECCENTRICITY": 0.0006415,
    "INCLINATION": 97.7514,
    "RA_OF_ASC_NODE": 167.8734,
    "ARG_OF_PERICENTER": 197.945,
    "MEAN_ANOMALY": 162.1565,
    "EPHEMERIS_TYPE": 0,
    "CLASSIFICATION_TYPE": "U",
    "NORAD_CAT_ID": 46496,
    "ELEMENT_SET_NO": 999,
    "REV_AT_EPOCH": 31964,
    "BSTAR": 0.0001985,
    "MEAN_MOTION_DOT": 0.00006078,
    "MEAN_MOTION_DDOT": 0
   }
  }
 ]
}
